[{"OBJECT_NAME":"STARLINK-11327 [DTC]","OBJECT_ID":"2024-195J","EPOCH":"2026-03-17T10:46:08.931072","MEAN_MOTION":15.69692877,"ECCENTRICITY":0.00011889,"INCLINATION":53.1593,"RA_OF_ASC_NODE":347.9065,"ARG_OF_PERICENTER":91.4734,"MEAN_ANOMALY":268.6421,"EPHEMERIS_TYPE":0,"CLASSIFICATION_TYPE":"U","NORAD_CAT_ID":61695,"ELEMENT_SET_NO":999,"REV_AT_EPOCH":8025,"BSTAR":2.6705604e-5,"MEAN_MOTION_DOT":2.645e-5,"MEAN_MOTION_DDOT":0},{"OBJECT_NAME":"STARLINK-11341 [DTC]","OBJECT_ID":"2024-195K","EPOCH":"2026-03-17T01:28:58.056384","MEAN_MOTION":15.69702143,"ECCENTRICITY":8.915e-5,"INCLINATION":53.1597,"RA_OF_ASC_NODE":349.7571,"ARG_OF_PERICENTER":115.226,"MEAN_ANOMALY":244.8851,"EPHEMERIS_TYPE":0,"CLASSIFICATION_TYPE":"U","NORAD_CAT_ID":61696,"ELEMENT_SET_NO":999,"REV_AT_EPOCH":8019,"BSTAR":1.5510587e-5,"MEAN_MOTION_DOT":1.291e-5,"MEAN_MOTION_DDOT":0},{"OBJECT_NAME":"STARLINK-11346 [DTC]","OBJECT_ID":"2024-195L","EPOCH":"2026-03-16T23:50:14.064576","MEAN_MOTION":15.69699349,"ECCENTRICITY":9.643e-5,"INCLINATION":53.1581,"RA_OF_ASC_NODE":350.0378,"ARG_OF_PERICENTER":34.7515,"MEAN_ANOMALY":325.3566,"EPHEMERIS_TYPE":0,"CLASSIFICATION_TYPE":"U","NORAD_CAT_ID":61697,"ELEMENT_SET_NO":999,"REV_AT_EPOCH":8018,"BSTAR":6.3924303e-5,"MEAN_MOTION_DOT":7.159e-5,"MEAN_MOTION_DDOT":0},{"OBJECT_NAME":"STARLINK-11296 [DTC]","OBJECT_ID":"2024-195N","EPOCH":"2026-03-17T01:07:47.597952","MEAN_MOTION":15.69670312,"ECCENTRICITY":8.259e-5,"INCLINATION":53.1591,"RA_OF_ASC_NODE":349.6591,"ARG_OF_PERICENTER":67.5642,"MEAN_ANOMALY":292.5464,"EPHEMERIS_TYPE":0,"CLASSIFICATION_TYPE":"U","NORAD_CAT_ID":61699,"ELEMENT_SET_NO":999,"REV_AT_EPOCH":8019,"BSTAR":5.9618448e-5,"MEAN_MOTION_DOT":6.629e-5,"MEAN_MOTION_DDOT":0},{"OBJECT_NAME":"STARLINK-32349","OBJECT_ID":"2024-195P","EPOCH":"2026-03-17T10:01:26.386464","MEAN_MOTION":15.30200857,"ECCENTRICITY":0.00010677,"INCLINATION":53.1578,"RA_OF_ASC_NODE":119.5349,"ARG_OF_PERICENTER":82.2676,"MEAN_ANOMALY":277.8446,"EPHEMERIS_TYPE":0,"CLASSIFICATION_TYPE":"U","NORAD_CAT_ID":61700,"ELEMENT_SET_NO":999,"REV_AT_EPOCH":7836,"BSTAR":0.00026036301,"MEAN_MOTION_DOT":7.36e-5,"MEAN_MOTION_DDOT":0},{"OBJECT_NAME":"STARLINK-32461","OBJECT_ID":"2024-195Q","EPOCH":"2026-03-17T12:55:51.532032","MEAN_MOTION":15.30196447,"ECCENTRICITY":0.00012544,"INCLINATION":53.1602,"RA_OF_ASC_NODE":118.8674,"ARG_OF_PERICENTER":72.8298,"MEAN_ANOMALY":287.284,"EPHEMERIS_TYPE":0,"CLASSIFICATION_TYPE":"U","NORAD_CAT_ID":61701,"ELEMENT_SET_NO":999,"REV_AT_EPOCH":7838,"BSTAR":0.00012688798,"MEAN_MOTION_DOT":3.4e-5,"MEAN_MOTION_DDOT":0},{"OBJECT_NAME":"STARLINK-32299","OBJECT_ID":"2024-195R","EPOCH":"2026-03-17T12:36:06.190560","MEAN_MOTION":15.30198597,"ECCENTRICITY":0.00011293,"INCLINATION":53.1602,"RA_OF_ASC_NODE":118.7815,"ARG_OF_PERICENTER":86.765,"MEAN_ANOMALY":273.348,"EPHEMERIS_TYPE":0,"CLASSIFICATION_TYPE":"U","NORAD_CAT_ID":61702,"ELEMENT_SET_NO":999,"REV_AT_EPOCH":7845,"BSTAR":0.00022250833,"MEAN_MOTION_DOT":6.236e-5,"MEAN_MOTION_DDOT":0},{"OBJECT_NAME":"STARLINK-32387","OBJECT_ID":"2024-195T","EPOCH":"2026-03-17T12:05:42.625248","MEAN_MOTION":15.30190032,"ECCENTRICITY":0.00013593,"INCLINATION":53.16,"RA_OF_ASC_NODE":118.65,"ARG_OF_PERICENTER":75.1858,"MEAN_ANOMALY":284.9293,"EPHEMERIS_TYPE":0,"CLASSIFICATION_TYPE":"U","NORAD_CAT_ID":61704,"ELEMENT_SET_NO":999,"REV_AT_EPOCH":7838,"BSTAR":0.00013418642,"MEAN_MOTION_DOT":3.616e-5,"MEAN_MOTION_DDOT":0},{"OBJECT_NAME":"STARLINK-32515","OBJECT_ID":"2024-195U","EPOCH":"2026-03-17T12:04:21.173376","MEAN_MOTION":15.30189964,"ECCENTRICITY":0.00012634,"INCLINATION":53.1602,"RA_OF_ASC_NODE":119.354,"ARG_OF_PERICENTER":87.0838,"MEAN_ANOMALY":273.0308,"EPHEMERIS_TYPE":0,"CLASSIFICATION_TYPE":"U","NORAD_CAT_ID":61705,"ELEMENT_SET_NO":999,"REV_AT_EPOCH":7837,"BSTAR":0.00011499499,"MEAN_MOTION_DOT":3.047e-5,"MEAN_MOTION_DDOT":0},{"OBJECT_NAME":"STARLINK-32533","OBJECT_ID":"2024-195V","EPOCH":"2026-03-17T09:00:38.537856","MEAN_MOTION":15.30189977,"ECCENTRICITY":0.00013299,"INCLINATION":53.1602,"RA_OF_ASC_NODE":119.2708,"ARG_OF_PERICENTER":98.7448,"MEAN_ANOMALY":261.3704,"EPHEMERIS_TYPE":0,"CLASSIFICATION_TYPE":"U","NORAD_CAT_ID":61706,"ELEMENT_SET_NO":999,"REV_AT_EPOCH":7836,"BSTAR":0.00011322083,"MEAN_MOTION_DOT":2.994e-5,"MEAN_MOTION_DDOT":0},{"OBJECT_NAME":"STARLINK-32376","OBJECT_ID":"2024-196A","EPOCH":"2026-03-17T05:12:03.051072","MEAN_MOTION":15.30169175,"ECCENTRICITY":0.00017324,"INCLINATION":53.1602,"RA_OF_ASC_NODE":66.05,"ARG_OF_PERICENTER":92.0332,"MEAN_ANOMALY":268.0868,"EPHEMERIS_TYPE":0,"CLASSIFICATION_TYPE":"U","NORAD_CAT_ID":61707,"ELEMENT_SET_NO":999,"REV_AT_EPOCH":7832,"BSTAR":0.00020795144,"MEAN_MOTION_DOT":5.799e-5,"MEAN_MOTION_DDOT":0},{"OBJECT_NAME":"STARLINK-32402","OBJECT_ID":"2024-196B","EPOCH":"2026-03-17T05:53:03.675552","MEAN_MOTION":15.30188678,"ECCENTRICITY":0.00013244,"INCLINATION":53.1605,"RA_OF_ASC_NODE":66.2251,"ARG_OF_PERICENTER":85.0671,"MEAN_ANOMALY":275.0481,"EPHEMERIS_TYPE":0,"CLASSIFICATION_TYPE":"U","NORAD_CAT_ID":61708,"ELEMENT_SET_NO":999,"REV_AT_EPOCH":7831,"BSTAR":7.6649757e-5,"MEAN_MOTION_DOT":1.911e-5,"MEAN_MOTION_DDOT":0},{"OBJECT_NAME":"STARLINK-32314","OBJECT_ID":"2024-196C","EPOCH":"2026-03-17T05:31:46.783776","MEAN_MOTION":15.3018547,"ECCENTRICITY":0.00013426,"INCLINATION":53.1613,"RA_OF_ASC_NODE":66.133,"ARG_OF_PERICENTER":99.6554,"MEAN_ANOMALY":260.4598,"EPHEMERIS_TYPE":0,"CLASSIFICATION_TYPE":"U","NORAD_CAT_ID":61709,"ELEMENT_SET_NO":999,"REV_AT_EPOCH":7831,"BSTAR":7.4254727e-5,"MEAN_MOTION_DOT":1.84e-5,"MEAN_MOTION_DDOT":0},{"OBJECT_NAME":"STARLINK-32404","OBJECT_ID":"2024-196D","EPOCH":"2026-03-17T04:49:23.605824","MEAN_MOTION":15.30191784,"ECCENTRICITY":6.862e-5,"INCLINATION":53.1609,"RA_OF_ASC_NODE":66.6612,"ARG_OF_PERICENTER":104.0128,"MEAN_ANOMALY":256.0949,"EPHEMERIS_TYPE":0,"CLASSIFICATION_TYPE":"U","NORAD_CAT_ID":61710,"ELEMENT_SET_NO":999,"REV_AT_EPOCH":7830,"BSTAR":0.00010252827,"MEAN_MOTION_DOT":2.678e-5,"MEAN_MOTION_DDOT":0},{"OBJECT_NAME":"STARLINK-32312","OBJECT_ID":"2024-196E","EPOCH":"2026-03-17T03:47:04.729632","MEAN_MOTION":15.30222565,"ECCENTRICITY":0.00011161,"INCLINATION":53.1621,"RA_OF_ASC_NODE":66.3858,"ARG_OF_PERICENTER":88.07,"MEAN_ANOMALY":272.0429,"EPHEMERIS_TYPE":0,"CLASSIFICATION_TYPE":"U","NORAD_CAT_ID":61711,"ELEMENT_SET_NO":999,"REV_AT_EPOCH":7830,"BSTAR":-0.00023652068,"MEAN_MOTION_DOT":-7.362e-5,"MEAN_MOTION_DDOT":0},{"OBJECT_NAME":"STARLINK-32343","OBJECT_ID":"2024-196F","EPOCH":"2026-03-17T04:34:11.972640","MEAN_MOTION":15.30193562,"ECCENTRICITY":0.00011572,"INCLINATION":53.1603,"RA_OF_ASC_NODE":66.5927,"ARG_OF_PERICENTER":63.763,"MEAN_ANOMALY":296.3489,"EPHEMERIS_TYPE":0,"CLASSIFICATION_TYPE":"U","NORAD_CAT_ID":61712,"ELEMENT_SET_NO":999,"REV_AT_EPOCH":7830,"BSTAR":4.2813943e-5,"MEAN_MOTION_DOT":9.09e-6,"MEAN_MOTION_DDOT":0}]
