STARLINK-11327 [DTC]    
1 61695U 24195J   26076.44871448  .00002645  00000+0  26706-4 0  9990
2 61695  53.1593 347.9065 0001188  91.4734 268.6421 15.69692877 80259
STARLINK-11341 [DTC]    
1 61696U 24195K   26076.06178306  .00001291  00000+0  15511-4 0  9990
2 61696  53.1597 349.7571 0000891 115.2260 244.8851 15.69702143 80199
STARLINK-11346 [DTC]    
1 61697U 24195L   26075.99321834  .00007159  00000+0  63924-4 0  9998
2 61697  53.1581 350.0378 0000964  34.7515 325.3566 15.69699349 80182
STARLINK-11296 [DTC]    
1 61699U 24195N   26076.04707868  .00006629  00000+0  59618-4 0  9998
2 61699  53.1591 349.6591 0000825  67.5642 292.5464 15.69670312 80199
STARLINK-32349          
1 61700U 24195P   26076.41766651  .00007360  00000+0  26036-3 0  9997
2 61700  53.1578 119.5349 0001067  82.2676 277.8446 15.30200857 78365
STARLINK-32461          
1 61701U 24195Q   26076.53879088  .00003400  00000+0  12689-3 0  9990
2 61701  53.1602 118.8674 0001254  72.8298 287.2840 15.30196447 78384
STARLINK-32299          
1 61702U 24195R   26076.52507165  .00006236  00000+0  22251-3 0  9990
2 61702  53.1602 118.7815 0001129  86.7650 273.3480 15.30198597 78450
STARLINK-32387          
1 61704U 24195T   26076.50396557  .00003616  00000+0  13419-3 0  9996
2 61704  53.1600 118.6500 0001359  75.1858 284.9293 15.30190032 78385
STARLINK-32515          
1 61705U 24195U   26076.50302284  .00003047  00000+0  11499-3 0  9995
2 61705  53.1602 119.3540 0001263  87.0838 273.0308 15.30189964 78371
STARLINK-32533          
1 61706U 24195V   26076.37544604  .00002994  00000+0  11322-3 0  9990
2 61706  53.1602 119.2708 0001329  98.7448 261.3704 15.30189977 78369
STARLINK-32376          
1 61707U 24196A   26076.21670198  .00005799  00000+0  20795-3 0  9993
2 61707  53.1602  66.0500 0001732  92.0332 268.0868 15.30169175 78325
STARLINK-32402          
1 61708U 24196B   26076.24518143  .00001911  00000+0  76650-4 0  9992
2 61708  53.1605  66.2251 0001324  85.0671 275.0481 15.30188678 78316
STARLINK-32314          
1 61709U 24196C   26076.23040259  .00001840  00000+0  74255-4 0  9990
2 61709  53.1613  66.1330 0001342  99.6554 260.4598 15.30185470 78318
STARLINK-32404          
1 61710U 24196D   26076.20096766  .00002678  00000+0  10253-3 0  9990
2 61710  53.1609  66.6612 0000686 104.0128 256.0949 15.30191784 78306
STARLINK-32312          
1 61711U 24196E   26076.15769363 -.00007362  00000+0 -23652-3 0  9999
2 61711  53.1621  66.3858 0001116  88.0700 272.0429 15.30222565 78309
STARLINK-32343          
1 61712U 24196F   26076.19041635  .00000909  00000+0  42814-4 0  9999
2 61712  53.1603  66.5927 0001157  63.7630 296.3489 15.30193562 78305
